GOMX-1                  
1 39430U 13066Q   24157.15843099  .00002623  00000+0  44229-3 0  9999
2 39430  97.7344  32.2695 0138684 291.4034  67.2421 14.64139289561286
CUBEBUG-2 (LO-74)       
1 39440U 13066AA  24157.10230052  .00006525  00000+0  77141-3 0  9998
2 39440  97.8127 101.0331 0068621 314.8686  44.6967 14.83282672567742
NEE-02 KRYSAOR          
1 39441U 13066AB  24156.59562301  .00004702  00000+0  59914-3 0  9999
2 39441  97.8219  96.4594 0073771 338.2714  21.5373 14.80076726567234
FUNCUBE-1 (AO-73)       
1 39444U 13066AE  24157.14153968  .00007423  00000+0  72222-3 0  9999
2 39444  97.7183 116.4764 0048227 178.8714 181.2623 14.91950509568903
UWE-3                   
1 39446U 13066AG  24156.65982036  .00005522  00000+0  61858-3 0  9993
2 39446  97.7803 106.6688 0058669 260.4798  98.9784 14.86006609566841
BRITE-CA1 (TORONTO)     
1 40020U 14033L   24157.10433221  .00002602  00000+0  42457-3 0  9996
2 40020  97.8757 294.6540 0084303 130.2378 230.6242 14.69402485533208
DUCHIFAT-1              
1 40021U 14033M   24156.94424625  .00015494  00000+0  10374-2 0  9991
2 40021  98.0898 140.1521 0014823 135.0406 225.2023 15.06922323542282
NANOSATC-BR1            
1 40024U 14033Q   24157.15989823  .00011859  00000+0  88275-3 0  9991
2 40024  98.0610 128.7674 0005712 191.9182 168.1908 15.03097188541967
QB50P1                  
1 40025U 14033R   24156.40622919  .00008747  00000+0  71538-3 0  9995
2 40025  98.0384 116.7519 0010258 199.2895 160.7940 14.99562682540967
QB50P2                  
1 40032U 14033Y   24156.63123254  .00008349  00000+0  70595-3 0  9996
2 40032  98.0080 108.7531 0008944 182.4308 177.6871 14.98296494540790
PERSEUS-M2              
1 40037U 14033AD  24156.53911432  .00002937  00000+0  30691-3 0  9993
2 40037  97.9273  87.2853 0011844 232.9257 127.0878 14.90418282539946
PERSEUS-M1              
1 40039U 14033AF  24156.62958864  .00003066  00000+0  32190-3 0  9995
2 40039  97.9077  83.4677 0011600 231.7684 128.2490 14.90192907539815
POLYITAN-1              
1 40042U 14033AJ  24156.63218700  .00012706  00000+0  96479-3 0  9999
2 40042  98.0708 120.4027 0014137 165.0829 195.0815 15.02258762540957
TIGRISAT                
1 40043U 14033AK  24156.41917496  .00003102  00000+0  41748-3 0  9993
2 40043  97.6937 319.7027 0054906 346.5762  13.3986 14.78871245535572
AEROCUBE 6A             
1 40045U 14033AM  24156.44537226  .00007009  00000+0  84298-3 0  9994
2 40045  97.6687 330.4315 0049543 324.6104  35.1826 14.83347887535902
AEROCUBE 6B             
1 40046U 14033AN  24156.75825801  .00007500  00000+0  88379-3 0  9998
2 40046  97.6650 329.4256 0048045 318.9146  40.8454 14.84218596536000
UKUBE-1                 
1 40074U 14037F   24157.07801921  .00010254  00000+0  97493-3 0  9993
2 40074  98.3433  86.2584 0006014 105.7439 254.4442 14.93659344536973
BRITE-PL2 (HEWELIUSZ)   
1 40119U 14049B   24156.71700791  .00003260  00000+0  35315-3 0  9993
2 40119  97.8826 256.4401 0016749  49.4664 310.8009 14.88820734530722
CP10 (EXOCUBE)          
1 40380U 15003E   24156.98936969  .00326393  40944-4  12122-2 0  9992
2 40380  99.0881 180.1607 0033601 153.5973 206.7014 15.87086275517519
AEROCUBE 5C             
1 40965U 15058B   24156.92338880  .00004640  00000+0  43304-3 0  9992
2 40965  64.7718  39.3041 0189556 311.8899  46.6168 14.82765837255220
AEROCUBE 7              
1 40966U 15058C   24157.02095269  .00005923  00000+0  52970-3 0  9990
2 40966  64.7697  32.8856 0184519 311.4841  47.0550 14.84634984255327
FOX-1A (AO-85)          
1 40967U 15058D   24156.70904639  .00005024  00000+0  47582-3 0  9990
2 40967  64.7796  53.7745 0189144 307.7652  50.6449 14.82156566  3145
BISONSAT                
1 40968U 15058E   24157.10192585  .00006318  00000+0  57248-3 0  9992
2 40968  64.7798  45.4534 0184007 306.6262  51.8044 14.84136965  6027
SNAP-3 ALICE            
1 40970U 15058G   24156.86853357  .00011996  00000+0  84477-3 0  9990
2 40970  64.7721   4.1784 0155012 304.5318  54.1243 14.96089982  3942
LMRST-SAT               
1 40971U 15058H   24156.68339480  .00004713  00000+0  44658-3 0  9993
2 40971  64.7785  49.3811 0190187 309.1693  49.2648 14.82104092  3145
SNAP-3 EDDIE            
1 40972U 15058J   24156.94842849  .00012807  00000+0  89052-3 0  9991
2 40972  64.7701 357.3634 0155596 305.4670  53.2005 14.96433485  6059
PROPCUBE 3              
1 40973U 15058K   24156.45451140  .00005104  00000+0  46494-3 0  9993
2 40973  64.7731  38.0222 0186561 310.5671  47.9322 14.83896441  4144
SINOD-D 1               
1 40974U 15058L   24156.29793054  .00009289  00000+0  72388-3 0  9998
2 40974  64.7697  13.3215 0168345 308.2175  50.3880 14.91131368  3849
SNAP-3 JIMI             
1 40975U 15058M   24156.36710728  .00006864  00000+0  58364-3 0  9998
2 40975  64.7715  26.5543 0178816 309.5427  48.9995 14.87009301  3126
PROPCUBE 1 (FLORA)      
1 40976U 15058N   24156.73580573  .00005349  00000+0  52364-3 0  9994
2 40976  64.7775  64.5770 0188128 310.3855  48.0959 14.80966471  5956
SINOD-D 3               
1 40977U 15058P   24157.07909727  .00006713  00000+0  62949-3 0  9995
2 40977  64.7773  56.9527 0182916 309.4510  49.0533 14.82931556  4233
VELOX-II                
1 41171U 15077F   24157.18310928  .00188924  00000+0  14591-2 0  9998
2 41171  14.9856 149.0393 0004126 238.6018 121.3907 15.69906708469956
HORYU-4                 
1 41340U 16012D   24157.09230400  .00015968  00000+0  80002-3 0  9990
2 41340  31.0035  54.4180 0009697 214.6995 145.3012 15.16140303456314
RAVAN                   
1 41849U 16067B   24156.95050971  .00012730  00000+0  70513-3 0  9991
2 41849  98.0633 333.9242 0014168  73.9284 286.3505 15.13883519414132
CELTEE 1                
1 41850U 16067C   24157.21088100  .00007431  00000+0  50826-3 0  9995
2 41850  98.1016 326.0940 0000824 156.7948 203.3315 15.06438444413625
OPTICUBE 04             
1 41851U 16067D   24157.16743172  .00003515  00000+0  26747-3 0  9991
2 41851  98.0742 321.6076 0019891  95.8535 264.4957 15.02669222413436
AEROCUBE 8D             
1 41852U 16067E   24157.20995980  .00008966  00000+0  59267-3 0  9991
2 41852  98.1060 325.8135 0005895 141.5173 218.6475 15.07628389413596
AEROCUBE 8C             
1 41853U 16067F   24156.69218291  .00009802  00000+0  64808-3 0  9994
2 41853  98.0863 323.8781 0008809  85.0524 275.1708 15.07572100413509
PROMETHEUS 2-1          
1 41854U 16067G   24156.75928088  .00021758  00000+0  11133-2 0  9990
2 41854  98.0986 331.0964 0013589 101.8701 258.4055 15.16575036413853
PROMETHEUS 2-3          
1 41855U 16067H   24156.95324537  .00020578  00000+0  10545-2 0  9997
2 41855  98.0914 330.8039 0011714 110.4998 249.7492 15.16556513413887
DIDO-2                  
1 42000U 17008BE  24157.15008079  .00228059  00000+0  94547-3 0  9998
2 42000  97.1308 218.5010 0006406 185.9339 174.1857 15.85191554406891
AALTO-1                 
1 42775U 17036L   24156.31899465  .00116445  00000+0  11413-2 0  9997
2 42775  97.1040 185.8067 0005042 206.8131 153.2870 15.65707759387090
URSA MAIOR              
1 42776U 17036M   24156.83069775  .00342796  00000+0  12717-2 0  9996
2 42776  97.0963 190.5934 0007544 197.7985 162.3024 15.87218538387441
CICERO 6                
1 42793U 17036AE  24157.05059210  .00990730  56706-3  11614-2 0  9993
2 42793  97.0407 195.5550 0007946 204.0860 156.0053 16.08771149387901
CORVUS BC2              
1 42846U 17042X   24156.76228175  .00004573  00000+0  39533-3 0  9998
2 42846  97.3734 342.5600 0009455  99.0891 261.1402 14.97624543375587
CORVUS BC1              
1 42847U 17042Y   24156.99188521  .00005524  00000+0  47465-3 0  9994
2 42847  97.3721 343.1761 0009737  99.9170 260.3153 14.97772907375639
MIRATA                  
1 43015U 17073C   24157.19282188  .00018909  00000+0  90198-3 0  9995
2 43015  97.5979  42.0767 0168857 302.2584  56.2376 15.07335926354525
MAKERSAT 0              
1 43016U 17073D   24156.93542832  .00016910  00000+0  96614-3 0  9991
2 43016  97.5828  36.2567 0194965 324.0656  34.7582 14.98032825354085
CORVUS BC3              
1 43118U 18004H   24157.23309705  .00731283  25645-3  12655-2 0  9998
2 43118  97.2782 243.9369 0011498 261.4612  98.5365 16.02226370357049
GOMX-4B                 
1 43196U 18015E   24156.74676076  .00068482  00000+0  77395-3 0  9990
2 43196  97.6052 329.4201 0006190 357.4704   2.6521 15.62227945353584
GOMX-4A                 
1 43197U 18015F   24157.08501050  .00126659  00000+0  90030-3 0  9990
2 43197  97.5949 334.6935 0004428 328.8280  31.2720 15.73492718353970
CICERO 10               
1 43690U 18088A   24157.10407813  .00214750  00000+0  12215-2 0  9991
2 43690  85.0084 188.0461 0001618 196.7296 163.3923 15.78390269310284
SIRION PATHFINDER-2     
1 43759U 18099B   24156.90809591  .00007660  00000+0  57830-3 0  9998
2 43759  97.5286 213.3941 0010727 330.8648  29.1978 15.02636385300669
CORVUS BC4              
1 43767U 18099K   24157.13560048  .00006513  00000+0  50092-3 0  9993
2 43767  97.5158 210.8759 0011396  45.4756 314.7398 15.01976285300582
MOVE-II                 
1 43780U 18099Y   24156.15088914  .00021949  00000+0  11667-2 0  9990
2 43780  97.5226 219.2631 0006421  37.9341 322.2342 15.15280149300950
SPACEBEE-7              
1 43816U 18099BL  24157.15539081  .00016349  00000+0  97238-3 0  9994
2 43816  97.5493 221.0022 0008621 335.3843  24.6974 15.11301663300592
SPACEBEE-6              
1 43818U 18099BN  24156.93030400  .00037269  00000+0  15986-2 0  9995
2 43818  97.5422 225.9216 0006780 332.1096  27.9775 15.22612465301046
SHIELDS 1               
1 43850U 18104B   24156.62819336  .00018372  00000+0  49812-3 0  9997
2 43850  85.0220 291.6319 0012630 116.8255 243.4288 15.37423635304232
